start=new Date('2023-05-18T00:00:00.000Z').valueOf();
sats=[{"MEAN_ELEMENT_THEORY":"SGP4","TLE_LINE1":"1 51890U 22022AQ  23137.73499079  .00000765  00000-0  64823-4 0  9990","BSTAR":"0.00006482300000","EPHEMERIS_TYPE":"0","EPOCH":"2023-05-17T17:38:23.204256","REF_FRAME":"TEME","NORAD_CAT_ID":"51890","APOAPSIS":"537.893","ELEMENT_SET_NO":"999","PERIAPSIS":"536.593","TIME_SYSTEM":"UTC","OBJECT_NAME":"STARLINK-3519","OBJECT_TYPE":"PAYLOAD","OBJECT_ID":"2022-022AQ","TLE_LINE2":"2 51890  53.2183 288.9489 0000940  68.2437 291.8655 15.09658937 68214","SEMIMAJOR_AXIS":"6915.378","ECCENTRICITY":"0.00009400","INCLINATION":"53.2183","ARG_OF_PERICENTER":"68.2437","COUNTRY_CODE":"US","REV_AT_EPOCH":"6821","MEAN_ANOMALY":"291.8655","CENTER_NAME":"EARTH","LAUNCH_DATE":"2022-03-03","CLASSIFICATION_TYPE":"U","SITE":"AFETR","PERIOD":"95.386","GP_ID":"232043525","MEAN_MOTION_DDOT":"0.0000000000000","MEAN_MOTION":"15.09658937","MEAN_MOTION_DOT":"0.00000765","RA_OF_ASC_NODE":"288.9489","RCS_SIZE":"LARGE","DECAY_DATE":null,"FILE":"3910633"},{"APOAPSIS":"540.542","ELEMENT_SET_NO":"999","MEAN_ELEMENT_THEORY":"SGP4","NORAD_CAT_ID":"51891","REF_FRAME":"TEME","EPOCH":"2023-05-17T16:36:13.023360","EPHEMERIS_TYPE":"0","BSTAR":"0.00003639300000","TLE_LINE1":"1 51891U 22022AR  23137.69181740  .00000291  00000-0  36393-4 0  9994","ARG_OF_PERICENTER":"101.1077","COUNTRY_CODE":"US","INCLINATION":"53.2173","ECCENTRICITY":"0.00011530","CENTER_NAME":"EARTH","MEAN_ANOMALY":"259.0044","REV_AT_EPOCH":"6825","OBJECT_TYPE":"PAYLOAD","OBJECT_NAME":"STARLINK-3549","TIME_SYSTEM":"UTC","PERIAPSIS":"538.947","SEMIMAJOR_AXIS":"6917.880","TLE_LINE2":"2 51891  53.2173 289.4908 0001153 101.1077 259.0044 15.08840171 68254","OBJECT_ID":"2022-022AR","CLASSIFICATION_TYPE":"U","SITE":"AFETR","GP_ID":"232043775","MEAN_MOTION_DDOT":"0.0000000000000","PERIOD":"95.438","LAUNCH_DATE":"2022-03-03","RCS_SIZE":"LARGE","DECAY_DATE":null,"RA_OF_ASC_NODE":"289.4908","FILE":"3910633","MEAN_MOTION":"15.08840171","MEAN_MOTION_DOT":"0.00000291"},{"OBJECT_TYPE":"PAYLOAD","OBJECT_NAME":"STARLINK-3587","PERIAPSIS":"539.139","TIME_SYSTEM":"UTC","SEMIMAJOR_AXIS":"6917.883","TLE_LINE2":"2 51892  53.2185 289.4581 0000879 102.0960 258.0130 15.08839285 68204","OBJECT_ID":"2022-022AS","ARG_OF_PERICENTER":"102.0960","COUNTRY_CODE":"US","INCLINATION":"53.2185","ECCENTRICITY":"0.00008790","CENTER_NAME":"EARTH","REV_AT_EPOCH":"6820","MEAN_ANOMALY":"258.0130","MEAN_ELEMENT_THEORY":"SGP4","REF_FRAME":"TEME","NORAD_CAT_ID":"51892","EPOCH":"2023-05-17T16:46:48.953280","EPHEMERIS_TYPE":"0","BSTAR":"0.00003448600000","TLE_LINE1":"1 51892U 22022AS  23137.69917770  .00000261  00000-0  34486-4 0  9993","APOAPSIS":"540.356","ELEMENT_SET_NO":"999","MEAN_MOTION":"15.08839285","MEAN_MOTION_DOT":"0.00000261","RCS_SIZE":"LARGE","DECAY_DATE":null,"RA_OF_ASC_NODE":"289.4581","FILE":"3910633","LAUNCH_DATE":"2022-03-03","SITE":"AFETR","CLASSIFICATION_TYPE":"U","MEAN_MOTION_DDOT":"0.0000000000000","GP_ID":"232045025","PERIOD":"95.438"},{"CLASSIFICATION_TYPE":"U","SITE":"AFETR","GP_ID":"232044776","MEAN_MOTION_DDOT":"0.0000000000000","PERIOD":"95.438","LAUNCH_DATE":"2022-03-03","RA_OF_ASC_NODE":"289.5248","DECAY_DATE":null,"RCS_SIZE":"LARGE","FILE":"3910633","MEAN_MOTION":"15.08839054","MEAN_MOTION_DOT":"0.00000843","APOAPSIS":"540.392","ELEMENT_SET_NO":"999","MEAN_ELEMENT_THEORY":"SGP4","REF_FRAME":"TEME","NORAD_CAT_ID":"51893","BSTAR":"0.00007106200000","TLE_LINE1":"1 51893U 22022AT  23137.68445772  .00000843  00000-0  71062-4 0  9998","EPOCH":"2023-05-17T16:25:37.147008","EPHEMERIS_TYPE":"0","COUNTRY_CODE":"US","ARG_OF_PERICENTER":"94.3477","ECCENTRICITY":"0.00009310","INCLINATION":"53.2173","REV_AT_EPOCH":"6826","MEAN_ANOMALY":"265.7622","CENTER_NAME":"EARTH","OBJECT_TYPE":"PAYLOAD","TIME_SYSTEM":"UTC","PERIAPSIS":"539.104","OBJECT_NAME":"STARLINK-3579","OBJECT_ID":"2022-022AT","SEMIMAJOR_AXIS":"6917.883","TLE_LINE2":"2 51893  53.2173 289.5248 0000931  94.3477 265.7622 15.08839054 68269"},{"BSTAR":"0.00016396000000","TLE_LINE1":"1 51894U 22022AU  23137.68814140  .00002322  00000-0  16396-3 0  9990","EPHEMERIS_TYPE":"0","EPOCH":"2023-05-17T16:30:55.416960","NORAD_CAT_ID":"51894","REF_FRAME":"TEME","MEAN_ELEMENT_THEORY":"SGP4","ELEMENT_SET_NO":"999","APOAPSIS":"540.506","OBJECT_ID":"2022-022AU","SEMIMAJOR_AXIS":"6917.910","TLE_LINE2":"2 51894  53.2167 289.5107 0001057  90.2502 269.8611 15.08830279 68264","TIME_SYSTEM":"UTC","PERIAPSIS":"539.044","OBJECT_NAME":"STARLINK-3595","OBJECT_TYPE":"PAYLOAD","MEAN_ANOMALY":"269.8611","REV_AT_EPOCH":"6826","CENTER_NAME":"EARTH","ECCENTRICITY":"0.00010570","INCLINATION":"53.2167","ARG_OF_PERICENTER":"90.2502","COUNTRY_CODE":"US","LAUNCH_DATE":"2022-03-03","PERIOD":"95.438","MEAN_MOTION_DDOT":"0.0000000000000","GP_ID":"232044025","SITE":"AFETR","CLASSIFICATION_TYPE":"U","MEAN_MOTION_DOT":"0.00002322","MEAN_MOTION":"15.08830279","FILE":"3910633","RA_OF_ASC_NODE":"289.5107","RCS_SIZE":"LARGE","DECAY_DATE":null},{"OBJECT_TYPE":"PAYLOAD","TIME_SYSTEM":"UTC","PERIAPSIS":"539.033","OBJECT_NAME":"STARLINK-3594","OBJECT_ID":"2022-022AV","SEMIMAJOR_AXIS":"6917.875","TLE_LINE2":"2 51895  53.2157 289.5416 0001022  93.9861 266.1248 15.08841620 68209","COUNTRY_CODE":"US","ARG_OF_PERICENTER":"93.9861","ECCENTRICITY":"0.00010220","INCLINATION":"53.2157","MEAN_ANOMALY":"266.1248","REV_AT_EPOCH":"6820","CENTER_NAME":"EARTH","MEAN_ELEMENT_THEORY":"SGP4","NORAD_CAT_ID":"51895","REF_FRAME":"TEME","BSTAR":"0.00013396000000","TLE_LINE1":"1 51895U 22022AV  23137.68077720  .00001845  00000-0  13396-3 0  9992","EPHEMERIS_TYPE":"0","EPOCH":"2023-05-17T16:20:19.150080","APOAPSIS":"540.447","ELEMENT_SET_NO":"999","MEAN_MOTION":"15.08841620","MEAN_MOTION_DOT":"0.00001845","RA_OF_ASC_NODE":"289.5416","RCS_SIZE":"LARGE","DECAY_DATE":null,"FILE":"3910633","LAUNCH_DATE":"2022-03-03","CLASSIFICATION_TYPE":"U","SITE":"AFETR","MEAN_MOTION_DDOT":"0.0000000000000","GP_ID":"232044274","PERIOD":"95.437"},{"TLE_LINE2":"2 51896  53.2164 289.5374 0000982  92.3925 267.7179 15.08840152 68253","SEMIMAJOR_AXIS":"6917.880","OBJECT_ID":"2022-022AW","OBJECT_TYPE":"PAYLOAD","OBJECT_NAME":"STARLINK-3593","TIME_SYSTEM":"UTC","PERIAPSIS":"539.066","CENTER_NAME":"EARTH","REV_AT_EPOCH":"6825","MEAN_ANOMALY":"267.7179","COUNTRY_CODE":"US","ARG_OF_PERICENTER":"92.3925","INCLINATION":"53.2164","ECCENTRICITY":"0.00009820","NORAD_CAT_ID":"51896","REF_FRAME":"TEME","EPHEMERIS_TYPE":"0","EPOCH":"2023-05-17T16:21:41.923008","TLE_LINE1":"1 51896U 22022AW  23137.68173522  .00000262  00000-0  34550-4 0  9998","BSTAR":"0.00003455000000","MEAN_ELEMENT_THEORY":"SGP4","ELEMENT_SET_NO":"999","APOAPSIS":"540.424","MEAN_MOTION_DOT":"0.00000262","MEAN_MOTION":"15.08840152","FILE":"3910633","RCS_SIZE":"LARGE","DECAY_DATE":null,"RA_OF_ASC_NODE":"289.5374","LAUNCH_DATE":"2022-03-03","GP_ID":"232044526","MEAN_MOTION_DDOT":"0.0000000000000","PERIOD":"95.438","SITE":"AFETR","CLASSIFICATION_TYPE":"U"},{"MEAN_MOTION":"15.08840023","MEAN_MOTION_DOT":"0.00000240","RCS_SIZE":"LARGE","DECAY_DATE":null,"RA_OF_ASC_NODE":"289.2614","FILE":"3910633","LAUNCH_DATE":"2022-03-03","CLASSIFICATION_TYPE":"U","SITE":"AFETR","PERIOD":"95.438","GP_ID":"232045276","MEAN_MOTION_DDOT":"0.0000000000000","OBJECT_NAME":"STARLINK-3598","PERIAPSIS":"539.053","TIME_SYSTEM":"UTC","OBJECT_TYPE":"PAYLOAD","TLE_LINE2":"2 51897  53.2174 289.2614 0001001  73.7748 286.3354 15.08840023 68213","SEMIMAJOR_AXIS":"6917.880","OBJECT_ID":"2022-022AX","INCLINATION":"53.2174","ECCENTRICITY":"0.00010010","ARG_OF_PERICENTER":"73.7748","COUNTRY_CODE":"US","CENTER_NAME":"EARTH","MEAN_ANOMALY":"286.3354","REV_AT_EPOCH":"6821","MEAN_ELEMENT_THEORY":"SGP4","EPHEMERIS_TYPE":"0","EPOCH":"2023-05-17T17:50:24.611424","BSTAR":"0.00003314500000","TLE_LINE1":"1 51897U 22022AX  23137.74334041  .00000240  00000-0  33145-4 0  9996","NORAD_CAT_ID":"51897","REF_FRAME":"TEME","APOAPSIS":"540.438","ELEMENT_SET_NO":"999"},{"OBJECT_TYPE":"PAYLOAD","PERIAPSIS":"538.987","TIME_SYSTEM":"UTC","OBJECT_NAME":"STARLINK-3597","OBJECT_ID":"2022-022AY","TLE_LINE2":"2 51898  53.2174 289.2781 0001086  87.7683 272.3434 15.08842318 68263","SEMIMAJOR_AXIS":"6917.873","COUNTRY_CODE":"US","ARG_OF_PERICENTER":"87.7683","ECCENTRICITY":"0.00010860","INCLINATION":"53.2174","REV_AT_EPOCH":"6826","MEAN_ANOMALY":"272.3434","CENTER_NAME":"EARTH","MEAN_ELEMENT_THEORY":"SGP4","REF_FRAME":"TEME","NORAD_CAT_ID":"51898","BSTAR":"0.00011344000000","TLE_LINE1":"1 51898U 22022AY  23137.73965787  .00001518  00000-0  11344-3 0  9998","EPHEMERIS_TYPE":"0","EPOCH":"2023-05-17T17:45:06.439968","APOAPSIS":"540.490","ELEMENT_SET_NO":"999","MEAN_MOTION":"15.08842318","MEAN_MOTION_DOT":"0.00001518","RA_OF_ASC_NODE":"289.2781","DECAY_DATE":null,"RCS_SIZE":"LARGE","FILE":"3910633","LAUNCH_DATE":"2022-03-03","CLASSIFICATION_TYPE":"U","SITE":"AFETR","GP_ID":"232043526","MEAN_MOTION_DDOT":"0.0000000000000","PERIOD":"95.437"},{"RCS_SIZE":"LARGE","DECAY_DATE":null,"RA_OF_ASC_NODE":"318.4125","FILE":"3910633","MEAN_MOTION":"15.08031735","MEAN_MOTION_DOT":"0.00000812","CLASSIFICATION_TYPE":"U","SITE":"AFETR","GP_ID":"232044027","MEAN_MOTION_DDOT":"0.0000000000000","PERIOD":"95.489","LAUNCH_DATE":"2022-03-09","ARG_OF_PERICENTER":"94.8440","COUNTRY_CODE":"US","INCLINATION":"53.1050","ECCENTRICITY":"0.00008940","CENTER_NAME":"EARTH","MEAN_ANOMALY":"265.2653","REV_AT_EPOCH":"6618","OBJECT_TYPE":"PAYLOAD","OBJECT_NAME":"STARLINK-3700","TIME_SYSTEM":"UTC","PERIAPSIS":"541.598","TLE_LINE2":"2 51956  53.1050 318.4125 0000894  94.8440 265.2653 15.08031735 66189","SEMIMAJOR_AXIS":"6920.352","OBJECT_ID":"2022-025A","APOAPSIS":"542.836","ELEMENT_SET_NO":"999","MEAN_ELEMENT_THEORY":"SGP4","REF_FRAME":"TEME","NORAD_CAT_ID":"51956","EPOCH":"2023-05-17T22:25:39.599904","EPHEMERIS_TYPE":"0","BSTAR":"0.00007049000000","TLE_LINE1":"1 51956U 22025A   23137.93448611  .00000812  00000-0  70490-4 0  9994"}];
